*******************************************************************************
Ephemeris / WWW_USER Mon Mar 24 07:30:00 2025 Pasadena, USA      / Horizons    
*******************************************************************************
Target body name: (2018 RC)                       {source: JPL#21}
Center body name: Earth (399)                     {source: DE441}
Center-site name: Mauna Kea
*******************************************************************************
Start time      : A.D. 2019-Jan-27 04:20:00.0000 UT      
Stop  time      : A.D. 2019-Jan-27 16:48:00.0000 UT      
Step-size       : 1 minutes
*******************************************************************************
Target pole/equ : undefined
Target radii    : undefined                                                    
Center geodetic : 204.5278, 19.8260847, 4.21024   {E-lon(deg),Lat(deg),Alt(km)}
Center cylindric: 204.5278, 6006.35451, 2151.0229 {E-lon(deg),Dxy(km),Dz(km)}
Center pole/equ : ITRF93                          {East-longitude positive}
Center radii    : 6378.137, 6378.137, 6356.752 km {Equator_a, b, pole_c}       
Target primary  : Sun
Vis. interferer : MOON (R_eq= 1737.400) km        {source: DE441}
Rel. light bend : Sun                             {source: DE441}
Rel. lght bnd GM: 1.3271E+11 km^3/s^2                                          
Small-body perts: Yes                             {source: SB441-N16}
Atmos refraction: NO (AIRLESS)
RA format       : HMS
Time format     : CAL 
Calendar mode   : Mixed Julian/Gregorian
RTS-only print  : NO       
EOP file        : eop.250321.p250617                                           
EOP coverage    : DATA-BASED 1962-JAN-20 TO 2025-MAR-21. PREDICTS-> 2025-JUN-16
Units conversion: 1 au= 149597870.700 km, c= 299792.458 km/s, 1 day= 86400.0 s 
Table cut-offs 1: Elevation (-90.0deg=NO ),Airmass (>38.000=NO), Daylight (YES)
Table cut-offs 2: Solar elongation (  0.0,180.0=NO ),Local Hour Angle( 0.0=NO )
Table cut-offs 3: RA/DEC angular rate (     0.0=NO )                           
*******************************************************************************
Initial IAU76/J2000 heliocentric ecliptic osculating elements (au, days, deg.):
  EPOCH=  2458369.5 ! 2018-Sep-08.00 (TDB)         Residual RMS= .84866        
   EC= .2426621660028976   QR= .647471518312811    TP= 2458473.8617576878      
   OM= 346.8893436915528   W=  145.8737085184167   IN= 1.612045057594462       
  Equivalent ICRF heliocentric cartesian coordinates (au, au/d):
   X= 9.781363708094483E-01  Y=-2.377942828764822E-01  Z=-1.040448782093900E-01
  VX= 1.501011538102481E-03 VY= 1.393070215815854E-02 VZ= 6.509326736836346E-03
Asteroid physical parameters (km, seconds, rotational period in hours):        
   GM= n.a.                RAD= n.a.               ROTPER= .16548              
   H= 24.93                G= .150                 B-V= n.a.                   
                           ALBEDO= n.a.            STYP= n.a.                  
*******************************************************************************
 Date__(UT)__HR:MN     R.A._________(ICRF)_________DEC
******************************************************
$$SOE
 2019-Jan-27 14:35  m  17 18 30.258874 -23 45 21.41906
 2019-Jan-27 14:36  m  17 18 30.432774 -23 45 21.67957
 2019-Jan-27 14:37  m  17 18 30.606663 -23 45 21.94005
 2019-Jan-27 14:38  m  17 18 30.780542 -23 45 22.20048
 2019-Jan-27 14:39  m  17 18 30.954409 -23 45 22.46088
 2019-Jan-27 14:40  m  17 18 31.128266 -23 45 22.72124
 2019-Jan-27 14:41  m  17 18 31.302112 -23 45 22.98157
 2019-Jan-27 14:42  m  17 18 31.475946 -23 45 23.24186
 2019-Jan-27 14:43  m  17 18 31.649770 -23 45 23.50211
 2019-Jan-27 14:44  m  17 18 31.823584 -23 45 23.76232
 2019-Jan-27 14:45  m  17 18 31.997386 -23 45 24.02249
 2019-Jan-27 14:46  m  17 18 32.171177 -23 45 24.28263
 2019-Jan-27 14:47  m  17 18 32.344958 -23 45 24.54272
 2019-Jan-27 14:48  m  17 18 32.518728 -23 45 24.80278
 2019-Jan-27 14:49  m  17 18 32.692488 -23 45 25.06280
 2019-Jan-27 14:50  m  17 18 32.866236 -23 45 25.32278
 2019-Jan-27 14:51  m  17 18 33.039974 -23 45 25.58272
 2019-Jan-27 14:52  m  17 18 33.213701 -23 45 25.84261
 2019-Jan-27 14:53  m  17 18 33.387418 -23 45 26.10247
 2019-Jan-27 14:54  m  17 18 33.561124 -23 45 26.36229
 2019-Jan-27 14:55  m  17 18 33.734819 -23 45 26.62206
 2019-Jan-27 14:56  m  17 18 33.908504 -23 45 26.88180
 2019-Jan-27 14:57  m  17 18 34.082178 -23 45 27.14149
 2019-Jan-27 14:58  m  17 18 34.255842 -23 45 27.40115
 2019-Jan-27 14:59  m  17 18 34.429495 -23 45 27.66076
 2019-Jan-27 15:00  m  17 18 34.603137 -23 45 27.92032
 2019-Jan-27 15:01  m  17 18 34.776769 -23 45 28.17985
 2019-Jan-27 15:02  m  17 18 34.950391 -23 45 28.43933
 2019-Jan-27 15:03  m  17 18 35.124002 -23 45 28.69877
 2019-Jan-27 15:04  m  17 18 35.297603 -23 45 28.95817
 2019-Jan-27 15:05  m  17 18 35.471194 -23 45 29.21752
 2019-Jan-27 15:06  m  17 18 35.644774 -23 45 29.47683
 2019-Jan-27 15:07  m  17 18 35.818343 -23 45 29.73609
 2019-Jan-27 15:08  m  17 18 35.991903 -23 45 29.99532
 2019-Jan-27 15:09  m  17 18 36.165452 -23 45 30.25449
 2019-Jan-27 15:10  m  17 18 36.338991 -23 45 30.51362
 2019-Jan-27 15:11  m  17 18 36.512520 -23 45 30.77271
 2019-Jan-27 15:12  m  17 18 36.686038 -23 45 31.03175
 2019-Jan-27 15:13  m  17 18 36.859546 -23 45 31.29075
 2019-Jan-27 15:14  m  17 18 37.033044 -23 45 31.54970
 2019-Jan-27 15:15  m  17 18 37.206532 -23 45 31.80861
 2019-Jan-27 15:16  m  17 18 37.380010 -23 45 32.06746
 2019-Jan-27 15:17  m  17 18 37.553478 -23 45 32.32628
 2019-Jan-27 15:18  m  17 18 37.726936 -23 45 32.58504
 2019-Jan-27 15:19  m  17 18 37.900383 -23 45 32.84376
 2019-Jan-27 15:20  m  17 18 38.073821 -23 45 33.10243
 2019-Jan-27 15:21  m  17 18 38.247249 -23 45 33.36106
 2019-Jan-27 15:22  m  17 18 38.420666 -23 45 33.61963
 2019-Jan-27 15:23  m  17 18 38.594074 -23 45 33.87816
 2019-Jan-27 15:24  m  17 18 38.767472 -23 45 34.13664
 2019-Jan-27 15:25  m  17 18 38.940860 -23 45 34.39507
 2019-Jan-27 15:26  m  17 18 39.114238 -23 45 34.65346
 2019-Jan-27 15:27  m  17 18 39.287606 -23 45 34.91179
 2019-Jan-27 15:28  m  17 18 39.460965 -23 45 35.17008
 2019-Jan-27 15:29  m  17 18 39.634314 -23 45 35.42832
 2019-Jan-27 15:30  m  17 18 39.807653 -23 45 35.68650
 2019-Jan-27 15:31  m  17 18 39.980982 -23 45 35.94464
 2019-Jan-27 15:32  m  17 18 40.154302 -23 45 36.20273
 2019-Jan-27 15:33  m  17 18 40.327612 -23 45 36.46076
 2019-Jan-27 15:34  m  17 18 40.500912 -23 45 36.71875
 2019-Jan-27 15:35  m  17 18 40.674203 -23 45 36.97669
 2019-Jan-27 15:36  m  17 18 40.847484 -23 45 37.23457
 2019-Jan-27 15:37  m  17 18 41.020756 -23 45 37.49241
 2019-Jan-27 15:38  m  17 18 41.194018 -23 45 37.75019
 2019-Jan-27 15:39  m  17 18 41.367271 -23 45 38.00792
 2019-Jan-27 15:40  m  17 18 41.540514 -23 45 38.26560
 2019-Jan-27 15:41  m  17 18 41.713748 -23 45 38.52323
 2019-Jan-27 15:42  m  17 18 41.886972 -23 45 38.78080
 2019-Jan-27 15:43 Am  17 18 42.060188 -23 45 39.03832
 2019-Jan-27 15:44 Am  17 18 42.233393 -23 45 39.29579
 2019-Jan-27 15:45 Am  17 18 42.406590 -23 45 39.55321
 2019-Jan-27 15:46 Am  17 18 42.579777 -23 45 39.81057
 2019-Jan-27 15:47 Am  17 18 42.752955 -23 45 40.06788
 2019-Jan-27 15:48 Am  17 18 42.926124 -23 45 40.32514
 2019-Jan-27 15:49 Am  17 18 43.099284 -23 45 40.58234
 2019-Jan-27 15:50 Am  17 18 43.272434 -23 45 40.83949
 2019-Jan-27 15:51 Am  17 18 43.445576 -23 45 41.09658
 2019-Jan-27 15:52 Am  17 18 43.618708 -23 45 41.35362
 2019-Jan-27 15:53 Am  17 18 43.791831 -23 45 41.61061
 2019-Jan-27 15:54 Am  17 18 43.964946 -23 45 41.86754
 2019-Jan-27 15:55 Am  17 18 44.138051 -23 45 42.12441
 2019-Jan-27 15:56 Am  17 18 44.311147 -23 45 42.38123
 2019-Jan-27 15:57 Am  17 18 44.484235 -23 45 42.63799
 2019-Jan-27 15:58 Am  17 18 44.657313 -23 45 42.89470
 2019-Jan-27 15:59 Am  17 18 44.830383 -23 45 43.15135
 2019-Jan-27 16:00 Am  17 18 45.003444 -23 45 43.40795
 2019-Jan-27 16:01 Am  17 18 45.176496 -23 45 43.66449
 2019-Jan-27 16:02 Am  17 18 45.349540 -23 45 43.92097
 2019-Jan-27 16:03 Am  17 18 45.522575 -23 45 44.17740
 2019-Jan-27 16:04 Am  17 18 45.695601 -23 45 44.43376
 2019-Jan-27 16:05 Am  17 18 45.868618 -23 45 44.69008
 2019-Jan-27 16:06 Am  17 18 46.041627 -23 45 44.94633
 2019-Jan-27 16:07 Am  17 18 46.214627 -23 45 45.20253
 2019-Jan-27 16:08 Am  17 18 46.387619 -23 45 45.45866
 2019-Jan-27 16:09 Nm  17 18 46.560602 -23 45 45.71474
 2019-Jan-27 16:10 Nm  17 18 46.733577 -23 45 45.97077
 2019-Jan-27 16:11 Nm  17 18 46.906544 -23 45 46.22673
 2019-Jan-27 16:12 Nm  17 18 47.079502 -23 45 46.48263
 2019-Jan-27 16:13 Nm  17 18 47.252451 -23 45 46.73848
 2019-Jan-27 16:14 Nm  17 18 47.425393 -23 45 46.99427
 2019-Jan-27 16:15 Nm  17 18 47.598326 -23 45 47.24999
 2019-Jan-27 16:16 Nm  17 18 47.771250 -23 45 47.50566
 2019-Jan-27 16:17 Nm  17 18 47.944167 -23 45 47.76127
 2019-Jan-27 16:18 Nm  17 18 48.117075 -23 45 48.01682
 2019-Jan-27 16:19 Nm  17 18 48.289976 -23 45 48.27230
 2019-Jan-27 16:20 Nm  17 18 48.462868 -23 45 48.52773
 2019-Jan-27 16:21 Nm  17 18 48.635752 -23 45 48.78310
 2019-Jan-27 16:22 Nm  17 18 48.808628 -23 45 49.03840
 2019-Jan-27 16:23 Nm  17 18 48.981496 -23 45 49.29365
 2019-Jan-27 16:24 Nm  17 18 49.154356 -23 45 49.54883
 2019-Jan-27 16:25 Nm  17 18 49.327208 -23 45 49.80396
 2019-Jan-27 16:26 Nm  17 18 49.500053 -23 45 50.05902
 2019-Jan-27 16:27 Nm  17 18 49.672889 -23 45 50.31402
 2019-Jan-27 16:28 Nm  17 18 49.845718 -23 45 50.56896
 2019-Jan-27 16:29 Nm  17 18 50.018539 -23 45 50.82383
 2019-Jan-27 16:30 Nm  17 18 50.191352 -23 45 51.07865
 2019-Jan-27 16:31 Nm  17 18 50.364157 -23 45 51.33340
 2019-Jan-27 16:32 Nm  17 18 50.536955 -23 45 51.58809
 2019-Jan-27 16:33 Nm  17 18 50.709745 -23 45 51.84271
 2019-Jan-27 16:34 Nm  17 18 50.882528 -23 45 52.09728
 2019-Jan-27 16:35 Nm  17 18 51.055303 -23 45 52.35178
 2019-Jan-27 16:36 Cm  17 18 51.228071 -23 45 52.60621
 2019-Jan-27 16:37 Cm  17 18 51.400831 -23 45 52.86059
